STARLINK-4593           
1 53633U 22104AX  26068.74735117  .00000361  00000+0  40774-4 0  9991
2 53633  53.2173 223.8871 0001198  90.7205 269.3924 15.08839163195909
LEMUR-2-SIERRINI        
1 60579U 24149DR  26068.80891719  .00014386  00000+0  92040-3 0  9991
2 60579  97.6873 151.1225 0006580 147.8458 212.3173 15.08682764 85461
